[{"OBJECT_NAME":"LEO 1 (LEO VANTAGE 1)","OBJECT_ID":"2018-004C","EPOCH":"2026-03-09T16:57:06.140448","MEAN_MOTION":14.67184901,"ECCENTRICITY":0.03529424,"INCLINATION":99.2469,"RA_OF_ASC_NODE":334.0284,"ARG_OF_PERICENTER":24.854,"MEAN_ANOMALY":336.9207,"EPHEMERIS_TYPE":0,"CLASSIFICATION_TYPE":"U","NORAD_CAT_ID":43113,"ELEMENT_SET_NO":999,"REV_AT_EPOCH":42289,"BSTAR":0.000396029,"MEAN_MOTION_DOT":5.709e-5,"MEAN_MOTION_DDOT":0},{"OBJECT_NAME":"CZ-4B DEB","OBJECT_ID":"1999-057NK","EPOCH":"2026-03-09T22:49:14.824992","MEAN_MOTION":14.4812051,"ECCENTRICITY":0.00750923,"INCLINATION":98.5966,"RA_OF_ASC_NODE":119.6355,"ARG_OF_PERICENTER":148.6265,"MEAN_ANOMALY":211.944,"EPHEMERIS_TYPE":0,"CLASSIFICATION_TYPE":"U","NORAD_CAT_ID":29040,"ELEMENT_SET_NO":999,"REV_AT_EPOCH":20544,"BSTAR":0.00028350617,"MEAN_MOTION_DOT":1.045e-5,"MEAN_MOTION_DDOT":0}]
